start=new Date('2022-01-04T00:00:00.000Z').valueOf();
sats=[{"REF_FRAME":"TEME","CENTER_NAME":"EARTH","TLE_LINE1":"1 48441U 21040P   22003.76523977  .00000708  00000-0  66428-4 0  9996","RA_OF_ASC_NODE":"191.7555","PERIOD":"95.592","EPOCH":"2022-01-03T18:21:56.716128","MEAN_ELEMENT_THEORY":"SGP4","OBJECT_TYPE":"PAYLOAD","SEMIMAJOR_AXIS":"6925.342","COUNTRY_CODE":"US","DECAY_DATE":null,"LAUNCH_DATE":"2021-05-09","MEAN_MOTION":"15.06402222","NORAD_CAT_ID":"48441","APOAPSIS":"548.590","OBJECT_NAME":"STARLINK-2702","TIME_SYSTEM":"UTC","ECCENTRICITY":"0.00019980","BSTAR":"0.00006642800000","TLE_LINE2":"2 48441  53.0554 191.7555 0001998  79.4550 280.6664 15.06402222 36639","OBJECT_ID":"2021-040P","GP_ID":"193016438","MEAN_MOTION_DOT":"0.00000708","CLASSIFICATION_TYPE":"U","SITE":"AFETR","REV_AT_EPOCH":"3663","INCLINATION":"53.0554","ARG_OF_PERICENTER":"79.4550","MEAN_MOTION_DDOT":"0.0000000000000","ELEMENT_SET_NO":"999","MEAN_ANOMALY":"280.6664","RCS_SIZE":"LARGE","EPHEMERIS_TYPE":"0","PERIAPSIS":"545.823","FILE":"3256498"},{"MEAN_MOTION_DDOT":"0.0000000000000","MEAN_ANOMALY":"274.4763","ELEMENT_SET_NO":"999","CLASSIFICATION_TYPE":"U","GP_ID":"193017184","MEAN_MOTION_DOT":"0.00000664","ARG_OF_PERICENTER":"85.6506","SITE":"AFETR","INCLINATION":"53.0541","REV_AT_EPOCH":"3663","FILE":"3256498","RCS_SIZE":"LARGE","EPHEMERIS_TYPE":"0","PERIAPSIS":"545.510","ECCENTRICITY":"0.00024510","BSTAR":"0.00006349500000","OBJECT_ID":"2021-040Q","TLE_LINE2":"2 48442  53.0541 191.7625 0002451  85.6506 274.4763 15.06401925 36639","DECAY_DATE":null,"LAUNCH_DATE":"2021-05-09","COUNTRY_CODE":"US","TIME_SYSTEM":"UTC","OBJECT_NAME":"STARLINK-2644","APOAPSIS":"548.905","NORAD_CAT_ID":"48442","MEAN_MOTION":"15.06401925","RA_OF_ASC_NODE":"191.7625","TLE_LINE1":"1 48442U 21040Q   22003.76155588  .00000664  00000-0  63495-4 0  9998","REF_FRAME":"TEME","CENTER_NAME":"EARTH","OBJECT_TYPE":"PAYLOAD","SEMIMAJOR_AXIS":"6925.343","PERIOD":"95.592","MEAN_ELEMENT_THEORY":"SGP4","EPOCH":"2022-01-03T18:16:38.428032"},{"OBJECT_NAME":"STARLINK-2663","TIME_SYSTEM":"UTC","MEAN_MOTION":"15.06385366","APOAPSIS":"548.851","NORAD_CAT_ID":"48443","LAUNCH_DATE":"2021-05-09","DECAY_DATE":null,"COUNTRY_CODE":"US","SEMIMAJOR_AXIS":"6925.393","OBJECT_TYPE":"PAYLOAD","EPOCH":"2022-01-03T16:35:49.143264","MEAN_ELEMENT_THEORY":"SGP4","PERIOD":"95.593","TLE_LINE1":"1 48443U 21040R   22003.69154101  .00000457  00000-0  49627-4 0  9992","RA_OF_ASC_NODE":"192.0791","CENTER_NAME":"EARTH","REF_FRAME":"TEME","FILE":"3256498","PERIAPSIS":"545.666","RCS_SIZE":"LARGE","EPHEMERIS_TYPE":"0","ELEMENT_SET_NO":"999","MEAN_ANOMALY":"279.2214","MEAN_MOTION_DDOT":"0.0000000000000","REV_AT_EPOCH":"3662","SITE":"AFETR","INCLINATION":"53.0546","ARG_OF_PERICENTER":"80.9035","GP_ID":"193017440","MEAN_MOTION_DOT":"0.00000457","CLASSIFICATION_TYPE":"U","TLE_LINE2":"2 48443  53.0546 192.0791 0002300  80.9035 279.2214 15.06385366 36624","OBJECT_ID":"2021-040R","BSTAR":"0.00004962700000","ECCENTRICITY":"0.00023000"},{"SEMIMAJOR_AXIS":"6925.340","OBJECT_TYPE":"PAYLOAD","MEAN_ELEMENT_THEORY":"SGP4","EPOCH":"2022-01-03T16:30:28.977696","PERIOD":"95.592","RA_OF_ASC_NODE":"192.1007","TLE_LINE1":"1 48444U 21040S   22003.68783539  .00000741  00000-0  68653-4 0  9991","CENTER_NAME":"EARTH","REF_FRAME":"TEME","TIME_SYSTEM":"UTC","OBJECT_NAME":"STARLINK-2645","NORAD_CAT_ID":"48444","APOAPSIS":"548.781","MEAN_MOTION":"15.06402630","LAUNCH_DATE":"2021-05-09","DECAY_DATE":null,"COUNTRY_CODE":"US","OBJECT_ID":"2021-040S","TLE_LINE2":"2 48444  53.0547 192.1007 0002275  83.4901 276.6347 15.06402630 36620","BSTAR":"0.00006865300000","ECCENTRICITY":"0.00022750","FILE":"3256498","PERIAPSIS":"545.630","RCS_SIZE":"LARGE","EPHEMERIS_TYPE":"0","MEAN_ANOMALY":"276.6347","ELEMENT_SET_NO":"999","MEAN_MOTION_DDOT":"0.0000000000000","ARG_OF_PERICENTER":"83.4901","REV_AT_EPOCH":"3662","SITE":"AFETR","INCLINATION":"53.0547","CLASSIFICATION_TYPE":"U","GP_ID":"193018181","MEAN_MOTION_DOT":"0.00000741"},{"EPHEMERIS_TYPE":"0","RCS_SIZE":"LARGE","PERIAPSIS":"545.585","FILE":"3256498","GP_ID":"193016934","MEAN_MOTION_DOT":"0.00000873","CLASSIFICATION_TYPE":"U","SITE":"AFETR","INCLINATION":"53.0555","REV_AT_EPOCH":"3662","ARG_OF_PERICENTER":"82.9628","MEAN_MOTION_DDOT":"0.0000000000000","ELEMENT_SET_NO":"999","MEAN_ANOMALY":"277.1629","TLE_LINE2":"2 48445  53.0555 192.1231 0002355  82.9628 277.1629 15.06399318 36625","OBJECT_ID":"2021-040T","ECCENTRICITY":"0.00023550","BSTAR":"0.00007753400000","MEAN_MOTION":"15.06399318","APOAPSIS":"548.847","NORAD_CAT_ID":"48445","OBJECT_NAME":"STARLINK-2634","TIME_SYSTEM":"UTC","COUNTRY_CODE":"US","DECAY_DATE":null,"LAUNCH_DATE":"2021-05-09","PERIOD":"95.592","EPOCH":"2022-01-03T16:25:11.365248","MEAN_ELEMENT_THEORY":"SGP4","OBJECT_TYPE":"PAYLOAD","SEMIMAJOR_AXIS":"6925.351","REF_FRAME":"TEME","CENTER_NAME":"EARTH","TLE_LINE1":"1 48445U 21040T   22003.68415932  .00000873  00000-0  77534-4 0  9995","RA_OF_ASC_NODE":"192.1231"},{"COUNTRY_CODE":"US","LAUNCH_DATE":"2021-05-09","DECAY_DATE":null,"NORAD_CAT_ID":"48446","APOAPSIS":"549.049","MEAN_MOTION":"15.06389161","OBJECT_NAME":"STARLINK-2247","TIME_SYSTEM":"UTC","CENTER_NAME":"EARTH","REF_FRAME":"TEME","RA_OF_ASC_NODE":"191.8350","TLE_LINE1":"1 48446U 21040U   22003.74685266  .00000600  00000-0  59192-4 0  9990","MEAN_ELEMENT_THEORY":"SGP4","EPOCH":"2022-01-03T17:55:28.069824","PERIOD":"95.593","SEMIMAJOR_AXIS":"6925.382","OBJECT_TYPE":"PAYLOAD","ARG_OF_PERICENTER":"78.8723","INCLINATION":"53.0549","SITE":"AFETR","REV_AT_EPOCH":"3663","MEAN_MOTION_DOT":"0.00000600","GP_ID":"193017190","CLASSIFICATION_TYPE":"U","MEAN_ANOMALY":"281.2558","ELEMENT_SET_NO":"999","MEAN_MOTION_DDOT":"0.0000000000000","PERIAPSIS":"545.444","EPHEMERIS_TYPE":"0","RCS_SIZE":"LARGE","FILE":"3256498","BSTAR":"0.00005919200000","ECCENTRICITY":"0.00026030","OBJECT_ID":"2021-040U","TLE_LINE2":"2 48446  53.0549 191.8350 0002603  78.8723 281.2558 15.06389161 36636"},{"BSTAR":"0.00010353000000","ECCENTRICITY":"0.00022960","TLE_LINE2":"2 48447  53.0549 191.8510 0002296  78.9226 281.2022 15.06400926 36631","OBJECT_ID":"2021-040V","SITE":"AFETR","INCLINATION":"53.0549","REV_AT_EPOCH":"3663","ARG_OF_PERICENTER":"78.9226","GP_ID":"193017936","MEAN_MOTION_DOT":"0.00001261","CLASSIFICATION_TYPE":"U","ELEMENT_SET_NO":"999","MEAN_ANOMALY":"281.2022","MEAN_MOTION_DDOT":"0.0000000000000","PERIAPSIS":"545.621","EPHEMERIS_TYPE":"0","RCS_SIZE":"LARGE","FILE":"3256498","CENTER_NAME":"EARTH","REF_FRAME":"TEME","TLE_LINE1":"1 48447U 21040V   22003.74313327  .00001261  00000-0  10353-3 0  9996","RA_OF_ASC_NODE":"191.8510","EPOCH":"2022-01-03T17:50:06.714528","MEAN_ELEMENT_THEORY":"SGP4","PERIOD":"95.592","SEMIMAJOR_AXIS":"6925.346","OBJECT_TYPE":"PAYLOAD","COUNTRY_CODE":"US","LAUNCH_DATE":"2021-05-09","DECAY_DATE":null,"MEAN_MOTION":"15.06400926","NORAD_CAT_ID":"48447","APOAPSIS":"548.801","OBJECT_NAME":"STARLINK-2269","TIME_SYSTEM":"UTC"},{"MEAN_ANOMALY":"279.1176","ELEMENT_SET_NO":"999","MEAN_MOTION_DDOT":"0.0000000000000","ARG_OF_PERICENTER":"81.0062","SITE":"AFETR","REV_AT_EPOCH":"3662","INCLINATION":"53.0558","CLASSIFICATION_TYPE":"U","GP_ID":"193017686","MEAN_MOTION_DOT":"0.00000527","FILE":"3256498","PERIAPSIS":"545.748","EPHEMERIS_TYPE":"0","RCS_SIZE":"LARGE","BSTAR":"0.00005431500000","ECCENTRICITY":"0.00022030","OBJECT_ID":"2021-040W","TLE_LINE2":"2 48448  53.0558 192.0417 0002203  81.0062 279.1176 15.06380475 36623","LAUNCH_DATE":"2021-05-09","DECAY_DATE":null,"COUNTRY_CODE":"US","TIME_SYSTEM":"UTC","OBJECT_NAME":"STARLINK-2632","APOAPSIS":"548.799","NORAD_CAT_ID":"48448","MEAN_MOTION":"15.06380475","RA_OF_ASC_NODE":"192.0417","TLE_LINE1":"1 48448U 21040W   22003.70165870  .00000527  00000-0  54315-4 0  9992","CENTER_NAME":"EARTH","REF_FRAME":"TEME","SEMIMAJOR_AXIS":"6925.408","OBJECT_TYPE":"PAYLOAD","MEAN_ELEMENT_THEORY":"SGP4","EPOCH":"2022-01-03T16:50:23.311680","PERIOD":"95.593"},{"MEAN_MOTION":"15.06387560","APOAPSIS":"548.811","NORAD_CAT_ID":"48449","OBJECT_NAME":"STARLINK-2655","TIME_SYSTEM":"UTC","COUNTRY_CODE":"US","LAUNCH_DATE":"2021-05-09","DECAY_DATE":null,"EPOCH":"2022-01-03T19:20:21.702336","MEAN_ELEMENT_THEORY":"SGP4","PERIOD":"95.593","SEMIMAJOR_AXIS":"6925.387","OBJECT_TYPE":"PAYLOAD","CENTER_NAME":"EARTH","REF_FRAME":"TEME","TLE_LINE1":"1 48449U 21040X   22003.80580674  .00000872  00000-0  77463-4 0  9999","RA_OF_ASC_NODE":"191.5757","PERIAPSIS":"545.693","RCS_SIZE":"LARGE","EPHEMERIS_TYPE":"0","FILE":"3256498","SITE":"AFETR","REV_AT_EPOCH":"3664","INCLINATION":"53.0562","ARG_OF_PERICENTER":"81.7004","GP_ID":"193016439","CLASSIFICATION_TYPE":"U","MEAN_MOTION_DOT":"0.00000872","ELEMENT_SET_NO":"999","MEAN_ANOMALY":"278.4240","MEAN_MOTION_DDOT":"0.0000000000000","TLE_LINE2":"2 48449  53.0562 191.5757 0002251  81.7004 278.4240 15.06387560 36644","OBJECT_ID":"2021-040X","BSTAR":"0.00007746300000","ECCENTRICITY":"0.00022510"},{"BSTAR":"0.00011266000000","ECCENTRICITY":"0.00017940","TLE_LINE2":"2 48450  53.0549 191.5851 0001794  80.9079 279.2113 15.06394258 36640","OBJECT_ID":"2021-040Y","SITE":"AFETR","INCLINATION":"53.0549","REV_AT_EPOCH":"3664","ARG_OF_PERICENTER":"80.9079","MEAN_MOTION_DOT":"0.00001397","GP_ID":"193017185","CLASSIFICATION_TYPE":"U","ELEMENT_SET_NO":"999","MEAN_ANOMALY":"279.2113","MEAN_MOTION_DDOT":"0.0000000000000","PERIAPSIS":"545.989","EPHEMERIS_TYPE":"0","RCS_SIZE":"LARGE","FILE":"3256498","CENTER_NAME":"EARTH","REF_FRAME":"TEME","TLE_LINE1":"1 48450U 21040Y   22003.80213144  .00001397  00000-0  11266-3 0  9997","RA_OF_ASC_NODE":"191.5851","EPOCH":"2022-01-03T19:15:04.156416","MEAN_ELEMENT_THEORY":"SGP4","PERIOD":"95.593","SEMIMAJOR_AXIS":"6925.366","OBJECT_TYPE":"PAYLOAD","COUNTRY_CODE":"US","LAUNCH_DATE":"2021-05-09","DECAY_DATE":null,"MEAN_MOTION":"15.06394258","NORAD_CAT_ID":"48450","APOAPSIS":"548.474","TIME_SYSTEM":"UTC","OBJECT_NAME":"STARLINK-2660"}];
